start=new Date('2023-04-09T00:00:00.000Z').valueOf();
sats=[{"EPHEMERIS_TYPE":"0","PERIOD":"95.593","LAUNCH_DATE":"2020-06-04","OBJECT_NAME":"STARLINK-1411","SITE":"AFETR","EPOCH":"2023-04-08T12:02:41.041824","GP_ID":"229726297","ECCENTRICITY":"0.00014560","RCS_SIZE":"LARGE","MEAN_ANOMALY":"279.6326","TLE_LINE2":"2 45706  53.0535 142.9241 0001456  80.4828 279.6326 15.06393845158445","RA_OF_ASC_NODE":"142.9241","APOAPSIS":"548.241","ELEMENT_SET_NO":"999","BSTAR":"0.00004222500000","SEMIMAJOR_AXIS":"6925.367","INCLINATION":"53.0535","CLASSIFICATION_TYPE":"U","FILE":"3883527","NORAD_CAT_ID":"45706","MEAN_ELEMENT_THEORY":"SGP4","CENTER_NAME":"EARTH","COUNTRY_CODE":"US","REV_AT_EPOCH":"15844","ARG_OF_PERICENTER":"80.4828","DECAY_DATE":null,"MEAN_MOTION_DOT":"0.00000347","OBJECT_ID":"2020-035BB","OBJECT_TYPE":"PAYLOAD","REF_FRAME":"TEME","TLE_LINE1":"1 45706U 20035BB  23098.50186391  .00000347  00000-0  42225-4 0  9990","MEAN_MOTION":"15.06393845","TIME_SYSTEM":"UTC","PERIAPSIS":"546.224","MEAN_MOTION_DDOT":"0.0000000000000"},{"MEAN_MOTION_DOT":"0.00004671","DECAY_DATE":null,"ARG_OF_PERICENTER":"96.4005","COUNTRY_CODE":"US","REV_AT_EPOCH":"15844","CENTER_NAME":"EARTH","REF_FRAME":"TEME","OBJECT_TYPE":"PAYLOAD","OBJECT_ID":"2020-035BC","TIME_SYSTEM":"UTC","MEAN_MOTION":"15.06425272","TLE_LINE1":"1 45707U 20035BC  23098.43180176  .00004671  00000-0  33201-3 0  9995","MEAN_MOTION_DDOT":"0.0000000000000","PERIAPSIS":"546.306","SITE":"AFETR","OBJECT_NAME":"STARLINK-1412","LAUNCH_DATE":"2020-06-04","PERIOD":"95.591","EPHEMERIS_TYPE":"0","RCS_SIZE":"LARGE","GP_ID":"229727548","ECCENTRICITY":"0.00011990","EPOCH":"2023-04-08T10:21:47.672064","ELEMENT_SET_NO":"999","BSTAR":"0.00033201000000","APOAPSIS":"547.966","RA_OF_ASC_NODE":"143.2339","TLE_LINE2":"2 45707  53.0534 143.2339 0001199  96.4005 263.7120 15.06425272158441","MEAN_ANOMALY":"263.7120","NORAD_CAT_ID":"45707","MEAN_ELEMENT_THEORY":"SGP4","FILE":"3883527","CLASSIFICATION_TYPE":"U","SEMIMAJOR_AXIS":"6925.271","INCLINATION":"53.0534"},{"MEAN_MOTION":"15.06393890","TIME_SYSTEM":"UTC","TLE_LINE1":"1 45708U 20035BD  23098.33968604 -.00001466  00000-0 -79595-4 0  9993","MEAN_MOTION_DDOT":"0.0000000000000","PERIAPSIS":"546.416","MEAN_MOTION_DOT":"-0.00001466","DECAY_DATE":null,"ARG_OF_PERICENTER":"92.3984","CENTER_NAME":"EARTH","REV_AT_EPOCH":"15843","COUNTRY_CODE":"US","REF_FRAME":"TEME","OBJECT_TYPE":"PAYLOAD","OBJECT_ID":"2020-035BD","APOAPSIS":"548.049","BSTAR":"-0.00007959500000","ELEMENT_SET_NO":"999","RA_OF_ASC_NODE":"143.6493","TLE_LINE2":"2 45708  53.0518 143.6493 0001179  92.3984 267.7139 15.06393890158431","MEAN_ANOMALY":"267.7139","MEAN_ELEMENT_THEORY":"SGP4","NORAD_CAT_ID":"45708","FILE":"3883527","CLASSIFICATION_TYPE":"U","SEMIMAJOR_AXIS":"6925.367","INCLINATION":"53.0518","SITE":"AFETR","OBJECT_NAME":"STARLINK-1418","LAUNCH_DATE":"2020-06-04","EPHEMERIS_TYPE":"0","PERIOD":"95.593","GP_ID":"229727295","ECCENTRICITY":"0.00011790","RCS_SIZE":"LARGE","EPOCH":"2023-04-08T08:09:08.873856"},{"MEAN_ANOMALY":"275.4738","TLE_LINE2":"2 45709  53.0508 143.1848 0001501  84.6422 275.4738 15.06397856158404","RA_OF_ASC_NODE":"143.1848","ELEMENT_SET_NO":"999","BSTAR":"0.00025917000000","APOAPSIS":"548.260","INCLINATION":"53.0508","SEMIMAJOR_AXIS":"6925.355","CLASSIFICATION_TYPE":"U","FILE":"3883527","NORAD_CAT_ID":"45709","MEAN_ELEMENT_THEORY":"SGP4","PERIOD":"95.592","EPHEMERIS_TYPE":"0","OBJECT_NAME":"STARLINK-1421","LAUNCH_DATE":"2020-06-04","SITE":"AFETR","EPOCH":"2023-04-08T10:37:45.718464","RCS_SIZE":"LARGE","GP_ID":"229726547","ECCENTRICITY":"0.00015010","TLE_LINE1":"1 45709U 20035BE  23098.44289026  .00003581  00000-0  25917-3 0  9996","TIME_SYSTEM":"UTC","MEAN_MOTION":"15.06397856","PERIAPSIS":"546.181","MEAN_MOTION_DDOT":"0.0000000000000","COUNTRY_CODE":"US","REV_AT_EPOCH":"15840","CENTER_NAME":"EARTH","ARG_OF_PERICENTER":"84.6422","DECAY_DATE":null,"MEAN_MOTION_DOT":"0.00003581","OBJECT_TYPE":"PAYLOAD","OBJECT_ID":"2020-035BE","REF_FRAME":"TEME"},{"PERIAPSIS":"546.218","MEAN_MOTION_DDOT":"0.0000000000000","TLE_LINE1":"1 45710U 20035BF  23098.83728806  .00014171  00000-0  96807-3 0  9998","TIME_SYSTEM":"UTC","MEAN_MOTION":"15.06409702","OBJECT_ID":"2020-035BF","OBJECT_TYPE":"PAYLOAD","REF_FRAME":"TEME","COUNTRY_CODE":"US","REV_AT_EPOCH":"15809","CENTER_NAME":"EARTH","ARG_OF_PERICENTER":"93.9919","DECAY_DATE":null,"MEAN_MOTION_DOT":"0.00014171","SEMIMAJOR_AXIS":"6925.319","INCLINATION":"53.0502","CLASSIFICATION_TYPE":"U","FILE":"3883669","MEAN_ELEMENT_THEORY":"SGP4","NORAD_CAT_ID":"45710","MEAN_ANOMALY":"266.1230","TLE_LINE2":"2 45710  53.0502 141.4140 0001394  93.9919 266.1230 15.06409702158093","RA_OF_ASC_NODE":"141.4140","ELEMENT_SET_NO":"999","BSTAR":"0.00096807000000","APOAPSIS":"548.149","EPOCH":"2023-04-08T20:05:41.688384","RCS_SIZE":"LARGE","GP_ID":"229737539","ECCENTRICITY":"0.00013940","PERIOD":"95.592","EPHEMERIS_TYPE":"0","LAUNCH_DATE":"2020-06-04","OBJECT_NAME":"STARLINK-1423","SITE":"AFETR"},{"MEAN_ELEMENT_THEORY":"SGP4","NORAD_CAT_ID":"45711","SEMIMAJOR_AXIS":"6925.339","INCLINATION":"53.0514","FILE":"3883670","CLASSIFICATION_TYPE":"U","RA_OF_ASC_NODE":"142.9855","BSTAR":"0.00054651000000","ELEMENT_SET_NO":"999","APOAPSIS":"548.083","MEAN_ANOMALY":"276.9715","TLE_LINE2":"2 45711  53.0514 142.9855 0001270  83.1419 276.9715 15.06403129158044","RCS_SIZE":"LARGE","ECCENTRICITY":"0.00012700","GP_ID":"229738051","EPOCH":"2023-04-08T11:41:27.598272","SITE":"AFETR","PERIOD":"95.592","EPHEMERIS_TYPE":"0","OBJECT_NAME":"STARLINK-1433","LAUNCH_DATE":"2020-06-04","MEAN_MOTION_DDOT":"0.0000000000000","PERIAPSIS":"546.324","TIME_SYSTEM":"UTC","MEAN_MOTION":"15.06403129","TLE_LINE1":"1 45711U 20035BG  23098.48712498  .00007869  00000-0  54651-3 0  9997","REF_FRAME":"TEME","OBJECT_ID":"2020-035BG","OBJECT_TYPE":"PAYLOAD","DECAY_DATE":null,"MEAN_MOTION_DOT":"0.00007869","COUNTRY_CODE":"US","REV_AT_EPOCH":"15804","CENTER_NAME":"EARTH","ARG_OF_PERICENTER":"83.1419"},{"TLE_LINE1":"1 45712U 20035BH  23098.35074783 -.00003568  00000-0 -22080-3 0  9997","TIME_SYSTEM":"UTC","MEAN_MOTION":"15.06392604","PERIAPSIS":"546.222","MEAN_MOTION_DDOT":"0.0000000000000","ARG_OF_PERICENTER":"87.9769","COUNTRY_CODE":"US","REV_AT_EPOCH":"15843","CENTER_NAME":"EARTH","MEAN_MOTION_DOT":"-0.00003568","DECAY_DATE":null,"OBJECT_ID":"2020-035BH","OBJECT_TYPE":"PAYLOAD","REF_FRAME":"TEME","TLE_LINE2":"2 45712  53.0533 143.5967 0001464  87.9769 272.1387 15.06392604158433","MEAN_ANOMALY":"272.1387","ELEMENT_SET_NO":"999","BSTAR":"-0.00022080000000","APOAPSIS":"548.250","RA_OF_ASC_NODE":"143.5967","CLASSIFICATION_TYPE":"U","FILE":"3883527","INCLINATION":"53.0533","SEMIMAJOR_AXIS":"6925.371","MEAN_ELEMENT_THEORY":"SGP4","NORAD_CAT_ID":"45712","LAUNCH_DATE":"2020-06-04","OBJECT_NAME":"STARLINK-1434","PERIOD":"95.593","EPHEMERIS_TYPE":"0","SITE":"AFETR","EPOCH":"2023-04-08T08:25:04.612512","RCS_SIZE":"LARGE","GP_ID":"229727794","ECCENTRICITY":"0.00014640"},{"SITE":"AFETR","EPHEMERIS_TYPE":"0","PERIOD":"95.593","LAUNCH_DATE":"2020-06-04","OBJECT_NAME":"STARLINK-1436","GP_ID":"229726049","ECCENTRICITY":"0.00019520","RCS_SIZE":"LARGE","EPOCH":"2023-04-08T08:54:16.605792","RA_OF_ASC_NODE":"163.5105","APOAPSIS":"548.621","BSTAR":"0.00076214000000","ELEMENT_SET_NO":"999","MEAN_ANOMALY":"271.7136","TLE_LINE2":"2 45713  53.0522 163.5105 0001952  88.4077 271.7136 15.06381698158144","MEAN_ELEMENT_THEORY":"SGP4","NORAD_CAT_ID":"45713","SEMIMAJOR_AXIS":"6925.405","INCLINATION":"53.0522","CLASSIFICATION_TYPE":"U","FILE":"3883527","DECAY_DATE":null,"MEAN_MOTION_DOT":"0.00011083","CENTER_NAME":"EARTH","COUNTRY_CODE":"US","REV_AT_EPOCH":"15814","ARG_OF_PERICENTER":"88.4077","REF_FRAME":"TEME","OBJECT_TYPE":"PAYLOAD","OBJECT_ID":"2020-035BJ","MEAN_MOTION":"15.06381698","TIME_SYSTEM":"UTC","TLE_LINE1":"1 45713U 20035BJ  23098.37102553  .00011083  00000-0  76214-3 0  9994","MEAN_MOTION_DDOT":"0.0000000000000","PERIAPSIS":"545.918"},{"MEAN_ANOMALY":"285.8864","TLE_LINE2":"2 45714  53.0520 141.4638 0001442  74.2284 285.8864 15.06398358158095","RA_OF_ASC_NODE":"141.4638","APOAPSIS":"548.217","ELEMENT_SET_NO":"999","BSTAR":"0.00021924000000","SEMIMAJOR_AXIS":"6925.354","INCLINATION":"53.0520","CLASSIFICATION_TYPE":"U","FILE":"3883671","NORAD_CAT_ID":"45714","MEAN_ELEMENT_THEORY":"SGP4","EPHEMERIS_TYPE":"0","PERIOD":"95.592","LAUNCH_DATE":"2020-06-04","OBJECT_NAME":"STARLINK-1437","SITE":"AFETR","EPOCH":"2023-04-08T19:49:46.488000","ECCENTRICITY":"0.00014420","GP_ID":"229737565","RCS_SIZE":"LARGE","TLE_LINE1":"1 45714U 20035BK  23098.82623250  .00002985  00000-0  21924-3 0  9996","MEAN_MOTION":"15.06398358","TIME_SYSTEM":"UTC","PERIAPSIS":"546.220","MEAN_MOTION_DDOT":"0.0000000000000","CENTER_NAME":"EARTH","COUNTRY_CODE":"US","REV_AT_EPOCH":"15809","ARG_OF_PERICENTER":"74.2284","DECAY_DATE":null,"MEAN_MOTION_DOT":"0.00002985","OBJECT_ID":"2020-035BK","OBJECT_TYPE":"PAYLOAD","REF_FRAME":"TEME"},{"ARG_OF_PERICENTER":"76.1832","CENTER_NAME":"EARTH","COUNTRY_CODE":"US","REV_AT_EPOCH":"15664","MEAN_MOTION_DOT":"0.00012603","DECAY_DATE":null,"OBJECT_TYPE":"PAYLOAD","OBJECT_ID":"2020-038A","REF_FRAME":"TEME","TLE_LINE1":"1 45730U 20038A   23098.70460155  .00012603  00000-0  86358-3 0  9997","MEAN_MOTION":"15.06395124","TIME_SYSTEM":"UTC","PERIAPSIS":"546.650","MEAN_MOTION_DDOT":"0.0000000000000","OBJECT_NAME":"STARLINK-1461","LAUNCH_DATE":"2020-06-13","EPHEMERIS_TYPE":"0","PERIOD":"95.592","SITE":"AFETR","EPOCH":"2023-04-08T16:54:37.573920","GP_ID":"229738282","ECCENTRICITY":"0.00008360","RCS_SIZE":"LARGE","TLE_LINE2":"2 45730  53.0551 342.0122 0000836  76.1832 283.9250 15.06395124156645","MEAN_ANOMALY":"283.9250","APOAPSIS":"547.807","ELEMENT_SET_NO":"999","BSTAR":"0.00086358000000","RA_OF_ASC_NODE":"342.0122","FILE":"3883690","CLASSIFICATION_TYPE":"U","SEMIMAJOR_AXIS":"6925.364","INCLINATION":"53.0551","MEAN_ELEMENT_THEORY":"SGP4","NORAD_CAT_ID":"45730"}];
